[Satellite]
VERSION=1.1
NAME=PISAT
NICKNAME=PISAT
TLE1=1 41784U 16059B   18020.88880281  .00000077  00000-0  24161-4 0  9991
TLE2=2 41784  98.1396  84.9773 0031797 194.8616 165.1654 14.63298338 70419
